[{"OBJECT_ID":"2012-008AD","OBJECT_NAME":"CZ-3C DEB","NORAD_CAT_ID":"40863","OBJECT_TYPE":"DEBRIS","PERIOD":"652.230","INCLINATION":"21.4118","ECCENTRICITY":"0.70278630","MEAN_MOTION":"2.20780859","TLE_LINE1":"1 40863U 12008AD  21267.63197469 -.00000127  00000-0  97116-2 0  9992","TLE_LINE2":"2 40863  21.4118  12.3569 7027863 354.8547   0.6322  2.20780859 54086"},{"OBJECT_ID":"2012-008AH","OBJECT_NAME":"CZ-3C DEB","NORAD_CAT_ID":"40867","OBJECT_TYPE":"DEBRIS","PERIOD":"642.095","INCLINATION":"21.3662","ECCENTRICITY":"0.72166060","MEAN_MOTION":"2.24265919","TLE_LINE1":"1 40867U 12008AH  21269.94317069 -.00000088  00000-0 -77559-3 0  9999","TLE_LINE2":"2 40867  21.3662 229.3338 7216606 231.9826  38.5427  2.24265919 69145"},{"OBJECT_ID":"2012-008AJ","OBJECT_NAME":"CZ-3C DEB","NORAD_CAT_ID":"40868","OBJECT_TYPE":"DEBRIS","PERIOD":"631.285","INCLINATION":"21.9375","ECCENTRICITY":"0.67982790","MEAN_MOTION":"2.28105995","TLE_LINE1":"1 40868U 12008AJ  21256.45159982 -.00000150  00000-0  00000-0 0  9993","TLE_LINE2":"2 40868  21.9375  67.3074 6798279 241.3165  35.6854  2.28105995956385"},{"OBJECT_ID":"2012-008AK","OBJECT_NAME":"CZ-3C DEB","NORAD_CAT_ID":"40869","OBJECT_TYPE":"DEBRIS","PERIOD":"693.624","INCLINATION":"18.4259","ECCENTRICITY":"0.72490170","MEAN_MOTION":"2.07605290","TLE_LINE1":"1 40869U 12008AK  21267.35751098 -.00000247  00000-0 -64123-2 0  9997","TLE_LINE2":"2 40869  18.4259  14.2506 7249017  54.1864 353.0166  2.07605290 63356"},{"OBJECT_ID":"2012-035E","OBJECT_NAME":"MSG 3 DEB (COOLER COVER)","NORAD_CAT_ID":"40871","OBJECT_TYPE":"DEBRIS","PERIOD":"1418.427","INCLINATION":"5.6674","ECCENTRICITY":"0.00265800","MEAN_MOTION":"1.01520883","TLE_LINE1":"1 40871U 12035E   21266.37211885 -.00000253  00000-0  00000-0 0  9994","TLE_LINE2":"2 40871   5.6674  75.9995 0026580 234.7206  95.4315  1.01520883 33651"},{"OBJECT_ID":"2012-035F","OBJECT_NAME":"MSG 3 DEB (BAFFLE COVER)","NORAD_CAT_ID":"40872","OBJECT_TYPE":"DEBRIS","PERIOD":"1401.608","INCLINATION":"5.5859","ECCENTRICITY":"0.00929360","MEAN_MOTION":"1.02739138","TLE_LINE1":"1 40872U 12035F   21270.18012175 -.00000019  00000-0  00000-0 0  9990","TLE_LINE2":"2 40872   5.5859  75.6285 0092936 177.8882 182.3342  1.02739138 30053"},{"OBJECT_ID":"2015-039D","OBJECT_NAME":"ARIANE 5 DEB (SYLDA)","NORAD_CAT_ID":"40877","OBJECT_TYPE":"DEBRIS","PERIOD":"428.312","INCLINATION":"4.9348","ECCENTRICITY":"0.64630220","MEAN_MOTION":"3.36203440","TLE_LINE1":"1 40877U 15039D   21271.64486725  .00009089  00000-0  23509-2 0  9996","TLE_LINE2":"2 40877   4.9348 306.7821 6463022 119.3913 319.0680  3.36203440 64465"},{"OBJECT_ID":"2015-042C","OBJECT_NAME":"BREEZE-M DEB (TANK)","NORAD_CAT_ID":"40884","OBJECT_TYPE":"DEBRIS","PERIOD":"272.784","INCLINATION":"50.7350","ECCENTRICITY":"0.51913980","MEAN_MOTION":"5.27890267","TLE_LINE1":"1 40884U 15042C   21271.28291354  .00001460  00000-0  35728-3 0  9992","TLE_LINE2":"2 40884  50.7350 268.3811 5191398  69.3673 337.6238  5.27890267117103"},{"OBJECT_ID":"1985-102G","OBJECT_NAME":"COSMOS 1700 DEB","NORAD_CAT_ID":"40924","OBJECT_TYPE":"DEBRIS","PERIOD":"1436.928","INCLINATION":"12.5533","ECCENTRICITY":"0.00244860","MEAN_MOTION":"1.00213770","TLE_LINE1":"1 40924U 85102G   21271.71524503 -.00000036  00000-0  00000+0 0  9994","TLE_LINE2":"2 40924  12.5533 331.7756 0024486  95.4630 267.6065  1.00213770 50157"},{"OBJECT_ID":"2015-060C","OBJECT_NAME":"BREEZE-M DEB (TANK)","NORAD_CAT_ID":"40986","OBJECT_TYPE":"DEBRIS","PERIOD":"377.205","INCLINATION":"49.3295","ECCENTRICITY":"0.61317930","MEAN_MOTION":"3.81755269","TLE_LINE1":"1 40986U 15060C   21271.24459122  .00001983  00000-0  74279-3 0  9994","TLE_LINE2":"2 40986  49.3295 332.3985 6131793 221.2730  70.9846  3.81755269 82810"},{"OBJECT_ID":"2015-034E","OBJECT_NAME":"MSG 4 DEB (COOLER COVER)","NORAD_CAT_ID":"40989","OBJECT_TYPE":"DEBRIS","PERIOD":"1418.243","INCLINATION":"2.7937","ECCENTRICITY":"0.00261720","MEAN_MOTION":"1.01534061","TLE_LINE1":"1 40989U 15034E   21270.50651775 -.00000148  00000-0  00000-0 0  9995","TLE_LINE2":"2 40989   2.7937 115.5281 0026172 207.9265 352.3588  1.01534061 22832"},{"OBJECT_ID":"2015-034F","OBJECT_NAME":"MSG 4 DEB (BAFFLE COVER)","NORAD_CAT_ID":"40990","OBJECT_TYPE":"DEBRIS","PERIOD":"1402.749","INCLINATION":"2.7500","ECCENTRICITY":"0.00888150","MEAN_MOTION":"1.02655587","TLE_LINE1":"1 40990U 15034F   21270.58673086 -.00000164  00000-0  00000-0 0  9992","TLE_LINE2":"2 40990   2.7500 115.8256 0088815 129.0777 232.1662  1.02655587 23207"},{"OBJECT_ID":"2015-065D","OBJECT_NAME":"ARIANE 5 DEB (SYLDA)","NORAD_CAT_ID":"41031","OBJECT_TYPE":"DEBRIS","PERIOD":"379.332","INCLINATION":"4.3734","ECCENTRICITY":"0.62028240","MEAN_MOTION":"3.79614934","TLE_LINE1":"1 41031U 15065D   21272.22946437  .00099988  00000-0  52782-2 0  9996","TLE_LINE2":"2 41031   4.3734 325.6282 6202824 269.1214  24.1270  3.79614934 66508"},{"OBJECT_ID":"1980-085N","OBJECT_NAME":"COSMOS 1217 DEB","NORAD_CAT_ID":"41117","OBJECT_TYPE":"DEBRIS","PERIOD":"722.572","INCLINATION":"64.9044","ECCENTRICITY":"0.72031900","MEAN_MOTION":"1.99288049","TLE_LINE1":"1 41117U 80085N   21267.29036095  .00000903  00000-0 -78149-2 0  9991","TLE_LINE2":"2 41117  64.9044 157.5853 7203190 339.0468   2.5658  1.99288049 57033"},{"OBJECT_ID":"1991-015Q","OBJECT_NAME":"ARIANE 44LP DEB","NORAD_CAT_ID":"41118","OBJECT_TYPE":"DEBRIS","PERIOD":"507.793","INCLINATION":"3.7281","ECCENTRICITY":"0.66788320","MEAN_MOTION":"2.83580082","TLE_LINE1":"1 41118U 91015Q   21271.71219240 -.00000525  00000-0 -47657-2 0  9995","TLE_LINE2":"2 41118   3.7281 246.8996 6678832 260.6986 140.0842  2.83580082 81384"},{"OBJECT_ID":"2011-077AJ","OBJECT_NAME":"CZ-3B DEB","NORAD_CAT_ID":"41119","OBJECT_TYPE":"DEBRIS","PERIOD":"848.262","INCLINATION":"22.3008","ECCENTRICITY":"0.72730720","MEAN_MOTION":"1.69758914","TLE_LINE1":"1 41119U 11077AJ  21265.30233702 -.00000254  00000-0  00000-0 0  9990","TLE_LINE2":"2 41119  22.3008 344.7551 7273072   3.2220 359.7642  1.69758914 41639"},{"OBJECT_ID":"2015-082C","OBJECT_NAME":"BREEZE-M DEB (TANK)","NORAD_CAT_ID":"41193","OBJECT_TYPE":"DEBRIS","PERIOD":"279.623","INCLINATION":"49.5486","ECCENTRICITY":"0.52809690","MEAN_MOTION":"5.14978212","TLE_LINE1":"1 41193U 15082C   21271.30058823  .00002703  00000-0  53756-3 0  9997","TLE_LINE2":"2 41193  49.5486 275.1961 5280969 266.4628  34.6898  5.14978212108006"},{"OBJECT_ID":"2016-005C","OBJECT_NAME":"BREEZE-M DEB (TANK)","NORAD_CAT_ID":"41312","OBJECT_TYPE":"DEBRIS","PERIOD":"343.532","INCLINATION":"49.4688","ECCENTRICITY":"0.58588450","MEAN_MOTION":"4.19175161","TLE_LINE1":"1 41312U 16005C   21272.30680049  .00000211  00000-0  21910-3 0  9997","TLE_LINE2":"2 41312  49.4688   8.9732 5858845 289.3264  18.4254  4.19175161 86450"},{"OBJECT_ID":"2012-026D","OBJECT_NAME":"BREEZE-M DEB","NORAD_CAT_ID":"41317","OBJECT_TYPE":"DEBRIS","PERIOD":"803.256","INCLINATION":"11.2886","ECCENTRICITY":"0.41466450","MEAN_MOTION":"1.79270382","TLE_LINE1":"1 41317U 12026D   21270.81909599 -.00000087  00000-0  00000-0 0  9995","TLE_LINE2":"2 41317  11.2886 275.6140 4146645 150.3014 241.4564  1.79270382 37682"},{"OBJECT_ID":"2012-026E","OBJECT_NAME":"BREEZE-M DEB","NORAD_CAT_ID":"41318","OBJECT_TYPE":"DEBRIS","PERIOD":"815.776","INCLINATION":"11.5355","ECCENTRICITY":"0.41389150","MEAN_MOTION":"1.76519048","TLE_LINE1":"1 41318U 12026E   21270.24994952 -.00000088  00000-0  00000-0 0  9991","TLE_LINE2":"2 41318  11.5355 283.3401 4138915 136.0182 265.4627  1.76519048 36756"},{"OBJECT_ID":"2012-026F","OBJECT_NAME":"BREEZE-M DEB","NORAD_CAT_ID":"41319","OBJECT_TYPE":"DEBRIS","PERIOD":"814.962","INCLINATION":"11.5496","ECCENTRICITY":"0.41322200","MEAN_MOTION":"1.76695403","TLE_LINE1":"1 41319U 12026F   21269.28584889 -.00000092  00000-0  00000-0 0  9993","TLE_LINE2":"2 41319  11.5496 283.4444 4132220 135.9835 265.4253  1.76695403 37135"},{"OBJECT_ID":"2012-026G","OBJECT_NAME":"BREEZE-M DEB","NORAD_CAT_ID":"41320","OBJECT_TYPE":"DEBRIS","PERIOD":"817.993","INCLINATION":"11.4646","ECCENTRICITY":"0.41546350","MEAN_MOTION":"1.76040579","TLE_LINE1":"1 41320U 12026G   21271.42419749 -.00000090  00000-0  00000+0 0  9993","TLE_LINE2":"2 41320  11.4646 282.7881 4154635 136.1422 265.4748  1.76040579 37024"},{"OBJECT_ID":"2012-026H","OBJECT_NAME":"BREEZE-M DEB","NORAD_CAT_ID":"41321","OBJECT_TYPE":"DEBRIS","PERIOD":"813.383","INCLINATION":"11.5263","ECCENTRICITY":"0.41451680","MEAN_MOTION":"1.77038262","TLE_LINE1":"1 41321U 12026H   21270.28980139 -.00000085  00000-0  00000-0 0  9998","TLE_LINE2":"2 41321  11.5263 282.3002 4145168 138.4166 261.8060  1.77038262 37207"},{"OBJECT_ID":"2012-026K","OBJECT_NAME":"BREEZE-M DEB","NORAD_CAT_ID":"41323","OBJECT_TYPE":"DEBRIS","PERIOD":"810.042","INCLINATION":"11.1941","ECCENTRICITY":"0.41605070","MEAN_MOTION":"1.77768627","TLE_LINE1":"1 41323U 12026K   21268.35085423 -.00000101  00000-0  00000-0 0  9996","TLE_LINE2":"2 41323  11.1941 276.2816 4160507 146.7175 248.0537  1.77768627 37198"},{"OBJECT_ID":"2012-026L","OBJECT_NAME":"BREEZE-M DEB","NORAD_CAT_ID":"41324","OBJECT_TYPE":"DEBRIS","PERIOD":"801.048","INCLINATION":"11.3755","ECCENTRICITY":"0.41474330","MEAN_MOTION":"1.79764512","TLE_LINE1":"1 41324U 12026L   21272.27042242 -.00000083  00000-0  00000+0 0  9993","TLE_LINE2":"2 41324  11.3755 275.9608 4147433 151.0839 240.0200  1.79764512 37390"},{"OBJECT_ID":"2016-017C","OBJECT_NAME":"BREEZE-M DEB (TANK)","NORAD_CAT_ID":"41390","OBJECT_TYPE":"DEBRIS","PERIOD":"376.385","INCLINATION":"51.5598","ECCENTRICITY":"0.59283830","MEAN_MOTION":"3.82586682","TLE_LINE1":"1 41390U 16017C   21270.93245506 -.00000042  00000-0  71223-4 0  9994","TLE_LINE2":"2 41390  51.5598 131.2676 5928383  62.1247 345.1550  3.82586682 77463"}]